STARLINK-31248          
1 58840U 24017Q   26068.72007628 -.00000598  00000+0 -80500-5 0  9994
2 58840  53.1607 216.7400 0001430  90.1158 270.0006 15.30189376119998
2025-313BC              
1 67298U 25313BC  26068.18968176  .00075331  00000+0  26410-2 0  9997
2 67298  97.3985 144.8110 0008478 328.9209  31.1528 15.29126358  7890
